[
  {
    "OBJECT_NAME": "STARLINK-34073",
    "OBJECT_ID": "25137N",
    "EPOCH": "2025-11-11T00:13:34.140288",
    "MEAN_MOTION": 15.3964411,
    "ECCENTRICITY": 0.0001279,
    "INCLINATION": 53.1582,
    "RA_OF_ASC_NODE": 170.1011,
    "ARG_OF_PERICENTER": 81.6004,
    "MEAN_ANOMALY": 278.5146,
    "EPHEMERIS_TYPE": 0,
    "CLASSIFICATION_TYPE": "U",
    "NORAD_CAT_ID": 64606,
    "ELEMENT_SET_NO": 999,
    "REV_AT_EPOCH": 2239,
    "BSTAR": 0.0014168,
    "MEAN_MOTION_DOT": 0.00056739,
    "MEAN_MOTION_DDOT": 0.0,
    "TLE_LINE1": "1 64606U 25137N   25315.00942292  .00056739  00000+0  14168-2 0  9995",
    "TLE_LINE2": "2 64606  53.1582 170.1011 0001279  81.6004 278.5146 15.39644110 22390",
    "COMMENT": "Grouped by shell and plane from TLE"
  },
  {
    "OBJECT_NAME": "STARLINK-34532",
    "OBJECT_ID": "25137P",
    "EPOCH": "2025-11-11T00:35:18.936672",
    "MEAN_MOTION": 15.30229095,
    "ECCENTRICITY": 5.57e-05,
    "INCLINATION": 53.1635,
    "RA_OF_ASC_NODE": 176.5794,
    "ARG_OF_PERICENTER": 71.7038,
    "MEAN_ANOMALY": 288.4024,
    "EPHEMERIS_TYPE": 0,
    "CLASSIFICATION_TYPE": "U",
    "NORAD_CAT_ID": 64607,
    "ELEMENT_SET_NO": 999,
    "REV_AT_EPOCH": 2242,
    "BSTAR": 0.0014885999999999999,
    "MEAN_MOTION_DOT": 0.00044031,
    "MEAN_MOTION_DDOT": 0.0,
    "TLE_LINE1": "1 64607U 25137P   25315.02452473  .00044031  00000+0  14886-2 0  9994",
    "TLE_LINE2": "2 64607  53.1635 176.5794 0000557  71.7038 288.4024 15.30229095 22424",
    "COMMENT": "Grouped by shell and plane from TLE"
  },
  {
    "OBJECT_NAME": "STARLINK-34519",
    "OBJECT_ID": "25137Q",
    "EPOCH": "2025-11-11T00:00:02.999808",
    "MEAN_MOTION": 15.3956876,
    "ECCENTRICITY": 9.3e-05,
    "INCLINATION": 53.1587,
    "RA_OF_ASC_NODE": 170.6608,
    "ARG_OF_PERICENTER": 80.4363,
    "MEAN_ANOMALY": 328.2466,
    "EPHEMERIS_TYPE": 0,
    "CLASSIFICATION_TYPE": "U",
    "NORAD_CAT_ID": 64608,
    "ELEMENT_SET_NO": 999,
    "REV_AT_EPOCH": 591,
    "BSTAR": 0.0018111,
    "MEAN_MOTION_DOT": 0.00072613,
    "MEAN_MOTION_DDOT": 0.0,
    "TLE_LINE1": "1 64608U 25137Q   25315.00003472  .00072613  00000+0  18111-2 0  9996",
    "TLE_LINE2": "2 64608  53.1587 170.6608 0000930  80.4363 328.2466 15.39568760  5915",
    "COMMENT": "Grouped by shell and plane from TLE"
  },
  {
    "OBJECT_NAME": "STARLINK-34513",
    "OBJECT_ID": "25137R",
    "EPOCH": "2025-11-10T23:40:44.946048",
    "MEAN_MOTION": 15.39664958,
    "ECCENTRICITY": 4.17e-05,
    "INCLINATION": 53.1615,
    "RA_OF_ASC_NODE": 170.6701,
    "ARG_OF_PERICENTER": 220.8726,
    "MEAN_ANOMALY": 139.2247,
    "EPHEMERIS_TYPE": 0,
    "CLASSIFICATION_TYPE": "U",
    "NORAD_CAT_ID": 64609,
    "ELEMENT_SET_NO": 999,
    "REV_AT_EPOCH": 2260,
    "BSTAR": 0.0014521,
    "MEAN_MOTION_DOT": 0.00058212,
    "MEAN_MOTION_DDOT": 0.0,
    "TLE_LINE1": "1 64609U 25137R   25314.98663132  .00058212  00000+0  14521-2 0  9998",
    "TLE_LINE2": "2 64609  53.1615 170.6701 0000417 220.8726 139.2247 15.39664958 22603",
    "COMMENT": "Grouped by shell and plane from TLE"
  },
  {
    "OBJECT_NAME": "STARLINK-34569",
    "OBJECT_ID": "25137S",
    "EPOCH": "2025-11-10T23:34:04.223712",
    "MEAN_MOTION": 15.39641686,
    "ECCENTRICITY": 0.0001151,
    "INCLINATION": 53.1589,
    "RA_OF_ASC_NODE": 170.6411,
    "ARG_OF_PERICENTER": 71.2492,
    "MEAN_ANOMALY": 288.8637,
    "EPHEMERIS_TYPE": 0,
    "CLASSIFICATION_TYPE": "U",
    "NORAD_CAT_ID": 64610,
    "ELEMENT_SET_NO": 999,
    "REV_AT_EPOCH": 2250,
    "BSTAR": 0.0011511000000000002,
    "MEAN_MOTION_DOT": 0.00045955,
    "MEAN_MOTION_DDOT": 0.0,
    "TLE_LINE1": "1 64610U 25137S   25314.98199333  .00045955  00000+0  11511-2 0  9993",
    "TLE_LINE2": "2 64610  53.1589 170.6411 0001151  71.2492 288.8637 15.39641686 22503",
    "COMMENT": "Grouped by shell and plane from TLE"
  },
  {
    "OBJECT_NAME": "STARLINK-34521",
    "OBJECT_ID": "25137U",
    "EPOCH": "2025-11-09T23:51:51.665472",
    "MEAN_MOTION": 15.39636025,
    "ECCENTRICITY": 0.0001102,
    "INCLINATION": 53.1574,
    "RA_OF_ASC_NODE": 175.1412,
    "ARG_OF_PERICENTER": 104.6875,
    "MEAN_ANOMALY": 255.4252,
    "EPHEMERIS_TYPE": 0,
    "CLASSIFICATION_TYPE": "U",
    "NORAD_CAT_ID": 64612,
    "ELEMENT_SET_NO": 999,
    "REV_AT_EPOCH": 2235,
    "BSTAR": 0.0010305,
    "MEAN_MOTION_DOT": 0.00041065,
    "MEAN_MOTION_DDOT": 0.0,
    "TLE_LINE1": "1 64612U 25137U   25313.99434798  .00041065  00000+0  10305-2 0  9990",
    "TLE_LINE2": "2 64612  53.1574 175.1412 0001102 104.6875 255.4252 15.39636025 22359",
    "COMMENT": "Grouped by shell and plane from TLE"
  },
  {
    "OBJECT_NAME": "STARLINK-34500",
    "OBJECT_ID": "25137V",
    "EPOCH": "2025-11-11T00:34:05.984832",
    "MEAN_MOTION": 15.39672685,
    "ECCENTRICITY": 0.0001518,
    "INCLINATION": 53.1628,
    "RA_OF_ASC_NODE": 170.1916,
    "ARG_OF_PERICENTER": 268.7823,
    "MEAN_ANOMALY": 91.3008,
    "EPHEMERIS_TYPE": 0,
    "CLASSIFICATION_TYPE": "U",
    "NORAD_CAT_ID": 64613,
    "ELEMENT_SET_NO": 999,
    "REV_AT_EPOCH": 2261,
    "BSTAR": 0.0012139,
    "MEAN_MOTION_DOT": 0.00048551,
    "MEAN_MOTION_DDOT": 0.0,
    "TLE_LINE1": "1 64613U 25137V   25315.02368038  .00048551  00000+0  12139-2 0  9994",
    "TLE_LINE2": "2 64613  53.1628 170.1916 0001518 268.7823  91.3008 15.39672685 22617",
    "COMMENT": "Grouped by shell and plane from TLE"
  },
  {
    "OBJECT_NAME": "STARLINK-34440",
    "OBJECT_ID": "25137W",
    "EPOCH": "2025-11-11T00:27:25.881120",
    "MEAN_MOTION": 15.39682137,
    "ECCENTRICITY": 0.0001937,
    "INCLINATION": 53.1596,
    "RA_OF_ASC_NODE": 170.1555,
    "ARG_OF_PERICENTER": 101.0364,
    "MEAN_ANOMALY": 259.0859,
    "EPHEMERIS_TYPE": 0,
    "CLASSIFICATION_TYPE": "U",
    "NORAD_CAT_ID": 64614,
    "ELEMENT_SET_NO": 999,
    "REV_AT_EPOCH": 2251,
    "BSTAR": 0.0014616000000000002,
    "MEAN_MOTION_DOT": 0.00058636,
    "MEAN_MOTION_DDOT": 0.0,
    "TLE_LINE1": "1 64614U 25137W   25315.01904955  .00058636  00000+0  14616-2 0  9995",
    "TLE_LINE2": "2 64614  53.1596 170.1555 0001937 101.0364 259.0859 15.39682137 22514",
    "COMMENT": "Grouped by shell and plane from TLE"
  },
  {
    "OBJECT_NAME": "STARLINK-34469",
    "OBJECT_ID": "25137X",
    "EPOCH": "2025-11-11T00:54:10.378368",
    "MEAN_MOTION": 15.39647324,
    "ECCENTRICITY": 9.43e-05,
    "INCLINATION": 53.1579,
    "RA_OF_ASC_NODE": 170.2765,
    "ARG_OF_PERICENTER": 95.8648,
    "MEAN_ANOMALY": 264.2464,
    "EPHEMERIS_TYPE": 0,
    "CLASSIFICATION_TYPE": "U",
    "NORAD_CAT_ID": 64615,
    "ELEMENT_SET_NO": 999,
    "REV_AT_EPOCH": 2251,
    "BSTAR": 0.0014907000000000002,
    "MEAN_MOTION_DOT": 0.00059749,
    "MEAN_MOTION_DDOT": 0.0,
    "TLE_LINE1": "1 64615U 25137X   25315.03762012  .00059749  00000+0  14907-2 0  9993",
    "TLE_LINE2": "2 64615  53.1579 170.2765 0000943  95.8648 264.2464 15.39647324 22510",
    "COMMENT": "Grouped by shell and plane from TLE"
  },
  {
    "OBJECT_NAME": "STARLINK-34413",
    "OBJECT_ID": "25137Y",
    "EPOCH": "2025-11-11T00:40:47.615232",
    "MEAN_MOTION": 15.39654864,
    "ECCENTRICITY": 2.77e-05,
    "INCLINATION": 53.1576,
    "RA_OF_ASC_NODE": 170.2174,
    "ARG_OF_PERICENTER": 109.1548,
    "MEAN_ANOMALY": 250.9487,
    "EPHEMERIS_TYPE": 0,
    "CLASSIFICATION_TYPE": "U",
    "NORAD_CAT_ID": 64616,
    "ELEMENT_SET_NO": 999,
    "REV_AT_EPOCH": 2261,
    "BSTAR": 0.0012782,
    "MEAN_MOTION_DOT": 0.00051129,
    "MEAN_MOTION_DDOT": 0.0,
    "TLE_LINE1": "1 64616U 25137Y   25315.02832888  .00051129  00000+0  12782-2 0  9995",
    "TLE_LINE2": "2 64616  53.1576 170.2174 0000277 109.1548 250.9487 15.39654864 22615",
    "COMMENT": "Grouped by shell and plane from TLE"
  },
  {
    "OBJECT_NAME": "STARLINK-34416",
    "OBJECT_ID": "25137AB",
    "EPOCH": "2025-11-10T00:51:54.660384",
    "MEAN_MOTION": 15.39627672,
    "ECCENTRICITY": 8.36e-05,
    "INCLINATION": 53.1571,
    "RA_OF_ASC_NODE": 174.688,
    "ARG_OF_PERICENTER": 87.2035,
    "MEAN_ANOMALY": 272.9066,
    "EPHEMERIS_TYPE": 0,
    "CLASSIFICATION_TYPE": "U",
    "NORAD_CAT_ID": 64619,
    "ELEMENT_SET_NO": 999,
    "REV_AT_EPOCH": 2236,
    "BSTAR": 0.0011936,
    "MEAN_MOTION_DOT": 0.00047656,
    "MEAN_MOTION_DDOT": 0.0,
    "TLE_LINE1": "1 64619U 25137AB  25314.03604931  .00047656  00000+0  11936-2 0  9994",
    "TLE_LINE2": "2 64619  53.1571 174.6880 0000836  87.2035 272.9066 15.39627672 22369",
    "COMMENT": "Grouped by shell and plane from TLE"
  },
  {
    "OBJECT_NAME": "STARLINK-34414",
    "OBJECT_ID": "25137AC",
    "EPOCH": "2025-11-10T23:53:59.303328",
    "MEAN_MOTION": 15.39670438,
    "ECCENTRICITY": 7e-06,
    "INCLINATION": 53.1594,
    "RA_OF_ASC_NODE": 170.0116,
    "ARG_OF_PERICENTER": 42.0674,
    "MEAN_ANOMALY": 318.0336,
    "EPHEMERIS_TYPE": 0,
    "CLASSIFICATION_TYPE": "U",
    "NORAD_CAT_ID": 64620,
    "ELEMENT_SET_NO": 999,
    "REV_AT_EPOCH": 2251,
    "BSTAR": 0.001789,
    "MEAN_MOTION_DOT": 0.00071957,
    "MEAN_MOTION_DDOT": 0.0,
    "TLE_LINE1": "1 64620U 25137AC  25314.99582527  .00071957  00000+0  17890-2 0  9993",
    "TLE_LINE2": "2 64620  53.1594 170.0116 0000070  42.0674 318.0336 15.39670438 22513",
    "COMMENT": "Grouped by shell and plane from TLE"
  },
  {
    "OBJECT_NAME": "STARLINK-35189",
    "OBJECT_ID": "25212A",
    "EPOCH": "2025-11-10T23:48:17.658720",
    "MEAN_MOTION": 15.30233012,
    "ECCENTRICITY": 0.0001641,
    "INCLINATION": 53.1632,
    "RA_OF_ASC_NODE": 176.7795,
    "ARG_OF_PERICENTER": 213.4387,
    "MEAN_ANOMALY": 146.6511,
    "EPHEMERIS_TYPE": 0,
    "CLASSIFICATION_TYPE": "U",
    "NORAD_CAT_ID": 65676,
    "ELEMENT_SET_NO": 999,
    "REV_AT_EPOCH": 902,
    "BSTAR": 0.0012106,
    "MEAN_MOTION_DOT": 0.00035705,
    "MEAN_MOTION_DDOT": 0.0,
    "TLE_LINE1": "1 65676U 25212A   25314.99187105  .00035705  00000+0  12106-2 0  9998",
    "TLE_LINE2": "2 65676  53.1632 176.7795 0001641 213.4387 146.6511 15.30233012  9029",
    "COMMENT": "Grouped by shell and plane from TLE"
  }
]